FACSAT-1                
1 43721U 18096C   22207.89801576  .00016855  00000+0  45771-3 0  9999
2 43721  97.3491 287.7063 0011681 270.3795 179.8020 15.37588653204032
CENTAURI-2              
1 43722U 18096D   22207.46695250  .00016663  00000+0  40150-3 0  9996
2 43722  97.3554 289.4792 0010902 266.5602  93.4398 15.41262600204080
INNOSAT-2               
1 43738U 18096V   22207.84923787  .00048583  00000+0  77655-3 0  9990
2 43738  97.3635 297.6022 0011477 250.7848 249.3677 15.52948162204616
SIRION PATHFINDER-2     
1 43759U 18099B   22207.82511150  .00000563  00000+0  54491-4 0  9991
2 43759  97.6189 273.5637 0015110 125.5008 234.7626 14.96480185198938
CORVUS BC4              
1 43767U 18099K   22207.86216054  .00001586  00000+0  14670-3 0  9999
2 43767  97.6144 272.0492 0012830 130.4201 229.8142 14.95877692198869
MOVE-II                 
1 43780U 18099Y   22207.69689427  .00001828  00000+0  15945-3 0  9998
2 43780  97.6233 274.2481 0013619 134.8280 225.4052 14.98001357198936
SPACEBEE-7              
1 43816U 18099BL  22207.75348820  .00001782  00000+0  15607-3 0  9998
2 43816  97.6262 275.0322 0014491 118.4577 241.8107 14.97868015198537
SPACEBEE-5              
1 43817U 18099BM  22207.71952443  .00005108  00000+0  39639-3 0  9994
2 43817  97.6367 278.1355 0009404 124.2169 235.9948 15.01765867198662
SPACEBEE-6              
1 43818U 18099BN  22207.68220058  .00003473  00000+0  29090-3 0  9994
2 43818  97.6313 275.9104 0014841 116.1234 244.1518 14.98990748198719
SHIELDS 1               
1 43850U 18104B   22207.51572105  .00002581  00000+0  10517-3 0  9995
2 43850  85.0273  26.2890 0016044 117.4921 242.7955 15.23819240200454
STF-1                   
1 43852U 18104D   22207.45849680  .00008075  00000+0  29959-3 0  9999
2 43852  85.0296  26.5276 0014275 128.1395 232.1139 15.27319811200494
ZACUBE-2                
1 43907U 18111AH  22207.94158701  .00006847  00000+0  24950-3 0  9990
2 43907  97.1869  92.8420 0018083 302.9330 179.8271 15.28341940199326
LUME 1                  
1 43908U 18111AJ  22207.66797703  .00005456  00000+0  18363-3 0  9997
2 43908  97.1872  94.2495 0016383 296.7392  63.2173 15.31059010199390
AOBA VELOX-IV           
1 43940U 19003J   22207.64478548  .00020044  00000+0  51014-3 0  9995
2 43940  97.1231 242.3769 0016295  10.2046 349.9528 15.39475748196159
MOVE-IIB                
1 44398U 19038N   22207.95069950  .00011702  00000+0  55279-3 0  9996
2 44398  97.6347 177.6736 0020151 356.8670   3.2409 15.19401840169037
SONATE                  
1 44400U 19038Q   22207.89347365  .00004648  00000+0  25129-3 0  9994
2 44400  97.6436 176.5827 0023218   1.4365 358.6928 15.14959407168900
LUCKY-7                 
1 44406U 19038W   22207.86747142  .00003821  00000+0  20176-3 0  9993
2 44406  97.6398 177.1082 0022398 359.5632   0.5577 15.15932510168938
BEESAT 9                
1 44412U 19038AC  22207.89326286  .00004583  00000+0  23165-3 0  9992
2 44412  97.6370 177.4838 0020003   3.8286 356.3096 15.17404804168673
JAISAT-1                
1 44419U 19038F   22207.86666148  .00005359  00000+0  26679-3 0  9995
2 44419  97.6371 178.3249 0018902   1.3127 358.8153 15.17879157169038
DUCHIFAT-3              
1 44854U 19089C   22207.44359804  .00002711  00000+0  21268-3 0  9994
2 44854  36.9663 229.1597 0007771 185.0723 318.1155 15.01306636143792
EYESAT-NANO             
1 44877U 19092E   22207.47879669  .00006172  00000+0  26357-3 0  9991
2 44877  97.4636  31.5896 0010430 213.0513 147.0073 15.23201894144301
ORBITAL FACTORY 2 (OF-2)
1 45113U 19071C   22207.46839963  .00016134  00000+0  31923-3 0  9998
2 45113  51.6358 227.1528 0009750 325.2116  34.8233 15.47203199139414
M2 PATHFINDER           
1 45727U 20037E   22207.71820517  .00001490  00000+0  15194-3 0  9997
2 45727  97.7356  22.4668 0011204 265.6068  94.3871 14.92118183112681
NETSAT-4                
1 46504U 20068U   22207.77491903  .00003248  00000+0  24161-3 0  9991
2 46504  97.7256 147.4958 0012021 188.9375 171.1631 15.03625809 99953
NETSAT-3                
1 46505U 20068V   22207.79137892  .00002176  00000+0  16372-3 0  9992
2 46505  97.7264 147.4315 0010037 197.2468 162.8415 15.03563109 99963
NETSAT-1                
1 46506U 20068W   22207.80914988  .00002022  00000+0  15274-3 0  9994
2 46506  97.7264 147.3741 0008140 200.2470 159.8420 15.03516223 99963
NETSAT-2                
1 46507U 20068X   22207.81919085  .00002242  00000+0  16897-3 0  9995
2 46507  97.7265 147.3753 0007408 206.7625 153.3218 15.03500223 99919
SAI-1 NANOCONNECT-2     
1 47701U 21015C   22207.80149091  .00006202  00000+0  22906-3 0  9994
2 47701  97.4227 284.5553 0009749 320.7182  39.3349 15.28066554 78228
BEESAT-6                
1 47957U 21022AB  22207.92674947  .00007196  00000+0  45589-3 0  9996
2 47957  97.5253 106.7629 0020556  16.5949  46.3733 15.09077293 73759
SMOG-1                  
1 47964U 21022AJ  22207.66422848  .00004404  00000+0  27031-3 0  9997
2 47964  97.5272 107.6265 0018543   7.3488 352.8010 15.10488750 72807
MMSATS-1                
1 47976U 98067SJ  22207.87422144  .00021230  00000+0  25588-3 0  9996
2 47976  51.6396 126.7322 0002336 117.0134 354.7050 15.60733522 76415
BCCSAT-1                
1 48041U 21022AK  22207.67168692  .00004183  00000+0  26353-3 0  9999
2 48041  97.5274 107.2081 0015141   6.5388 353.6035 15.09606108 72756
BEESAT-5                
1 48083U 21022AM  22207.91564906  .00006828  00000+0  43083-3 0  9997
2 48083  97.5232 106.7560 0020706  16.0939  47.1916 15.09242880 72883
BEESAT-7                
1 48084U 21022AN  22207.92063865  .00006803  00000+0  43050-3 0  9994
2 48084  97.5263 106.7678 0020592  16.1687  45.8809 15.09141139 72478
BEESAT-8                
1 48085U 21022AP  22207.92294294  .00006659  00000+0  42248-3 0  9994
2 48085  97.5255 106.7664 0020054  16.9218  44.7827 15.09058836 73038
RAMSAT                  
1 48850U 98067SL  22207.34593692  .00115782  00000+0  70407-3 0  9993
2 48850  51.6357 118.1403 0002521 157.1960 202.9152 15.76615181 63451
BD-28                   
1 48867U 98067SN  22207.01703499  .00124844  00000+0  55499-3 0  9996
2 48867  51.6267 115.8325 0002054 152.5315 207.5797 15.83449192 62203
BINAR-1                 
1 49272U 98067SR  22207.03751365  .00090105  00000+0  52910-3 0  9991
2 49272  51.6313 123.5376 0004711 106.8204 253.3313 15.77499509 45742
MAYA-3                  
1 49273U 98067SS  22207.73331996  .00746571  29415-3  97505-3 0  9992
2 49273  51.6227 110.7760 0005621 208.5783 151.4922 16.06349227 45978
MAYA-4                  
1 49274U 98067ST  22207.11352108  .00486708  11534-3  87273-3 0  9990
2 49274  51.6259 114.9217 0004185 185.4671 174.6294 16.01099459 45861
CUAVA-1                 
1 49275U 98067SU  22207.82806650  .00219764  00000+0  78543-3 0  9993
2 49275  51.6305 115.0229 0004129 141.1753 327.9920 15.87682931 45873
